{
    "links": {
        "self": "http://www.neowsapp.com/rest/v1/neo/3869347?api_key=iIulBulltgU6a56xZRHN4H3l9WmuAYTsLGpBGhQ2"
    },
    "id": "3869347",
    "neo_reference_id": "3869347",
    "name": "(2019 SX6)",
    "designation": "2019 SX6",
    "nasa_jpl_url": "http://ssd.jpl.nasa.gov/sbdb.cgi?sstr=3869347",
    "absolute_magnitude_h": 26.0,
    "estimated_diameter": {
        "kilometers": {
            "estimated_diameter_min": 0.0167708462,
            "estimated_diameter_max": 0.0375007522
        },
        "meters": {
            "estimated_diameter_min": 16.7708462163,
            "estimated_diameter_max": 37.5007521798
        },
        "miles": {
            "estimated_diameter_min": 0.0104209175,
            "estimated_diameter_max": 0.0233018799
        },
        "feet": {
            "estimated_diameter_min": 55.0224631002,
            "estimated_diameter_max": 123.0339677816
        }
    },
    "is_potentially_hazardous_asteroid": false,
    "close_approach_data": [
        {
            "close_approach_date": "1901-06-23",
            "close_approach_date_full": "1901-Jun-23 11:39",
            "epoch_date_close_approach": -2162463660000,
            "relative_velocity": {
                "kilometers_per_second": "17.2086833549",
                "kilometers_per_hour": "61951.260077663",
                "miles_per_hour": "38494.1037965901"
            },
            "miss_distance": {
                "astronomical": "0.3252394194",
                "lunar": "126.5181341466",
                "kilometers": "48655124.382276678",
                "miles": "30232892.3732990364"
            },
            "orbiting_body": "Earth"
        },
        {
            "close_approach_date": "2019-09-22",
            "close_approach_date_full": "2019-Sep-22 22:23",
            "epoch_date_close_approach": 1569190980000,
            "relative_velocity": {
                "kilometers_per_second": "8.0289143825",
                "kilometers_per_hour": "28904.0917768321",
                "miles_per_hour": "17959.8785821099"
            },
            "miss_distance": {
                "astronomical": "0.0264555544",
                "lunar": "10.2912106616",
                "kilometers": "3957694.587909128",
                "miles": "2459197.3824288464"
            },
            "orbiting_body": "Earth"
        }
    ],
    "orbital_data": {
        "orbit_id": "1",
        "orbit_determination_date": "2019-09-29 16:12:03",
        "first_observation_date": "2019-09-24",
        "last_observation_date": "2019-09-29",
        "data_arc_in_days": 5,
        "observations_used": 10,
        "orbit_uncertainty": "8",
        "minimum_orbit_intersection": ".0108367",
        "jupiter_tisserand_invariant": "3.942",
        "epoch_osculation": "2458753.5",
        "eccentricity": ".4510869182459851",
        "semi_major_axis": "1.799053566920711",
        "inclination": "1.359755626918908",
        "ascending_node_longitude": "18.99827268869858",
        "orbital_period": "881.3827955345391",
        "perihelion_distance": ".9875240376590002",
        "perihelion_argument": "312.8877865562563",
        "aphelion_distance": "2.610583096182421",
        "perihelion_time": "2458727.112563430982",
        "mean_anomaly": "10.77792443076366",
        "mean_motion": ".4084490891175928",
        "equinox": "J2000",
        "orbit_class": {
            "orbit_class_type": "APO",
            "orbit_class_description": "Near-Earth asteroid orbits which cross the Earth’s orbit similar to that of 1862 Apollo",
            "orbit_class_range": "a (semi-major axis) > 1.0 AU; q (perihelion) < 1.017 AU"
        }
    },
    "is_sentry_object": false
}